STARLINK-4364           
1 53230U 22084AT  26083.41905357  .00001672  00000+0  12004-3 0  9997
2 53230  97.6025 145.7709 0000783 114.3361 245.7947 15.05647531201608
STARLINK-4370           
1 53231U 22084AU  26083.43013385  .00000463  00000+0  36283-4 0  9994
2 53231  97.6025 145.7436 0001252 118.6645 241.4708 15.05638734201603
STARLINK-4371           
1 53232U 22084AV  26083.45013423  .00001394  00000+0  11302-3 0  9998
2 53232  97.6054 144.6643 0001705 108.3940 251.7470 15.01260941201530
STARLINK-4372           
1 53233U 22084AW  26083.44482523  .00000018  00000+0  59088-5 0  9996
2 53233  97.6047 144.6655 0001962  78.4150 281.7294 15.01263585201535
STARLINK-4368           
1 53234U 22084AX  26083.44643329  .00000676  00000+0  57186-4 0  9996
2 53234  97.6059 144.6599 0001399  99.4008 260.7374 15.01248038202549
STARLINK-4056           
1 53242U 22086A   26083.54142520  .00000223  00000+0  32129-4 0  9993
2 53242  53.2159 132.4386 0001303  81.8877 278.2263 15.08833272203550
STARLINK-4047           
1 53243U 22086B   26083.51333809 -.00001712  00000+0 -89546-4 0  9994
2 53243  53.2186 137.2704 0001496  96.5382 263.5780 15.08830704203508
STARLINK-4125           
1 53244U 22086C   26083.53914048 -.00001528  00000+0 -77926-4 0  9991
2 53244  53.2154 137.5389 0001359  81.4851 278.6295 15.08835205203484
STARLINK-4131           
1 53246U 22086E   26083.40297541  .00000462  00000+0  47137-4 0  9996
2 53246  53.2175 138.0724 0001094  75.0784 285.0329 15.08824101202356
STARLINK-4061           
1 53247U 22086F   26083.42369269  .00000548  00000+0  52547-4 0  9992
2 53247  53.2170 133.1610 0001099  85.0339 275.0778 15.08830509203531
STARLINK-4135           
1 53248U 22086G   26083.41264263  .00000229  00000+0  32461-4 0  9999
2 53248  53.2170 133.1333 0001320  76.5605 283.5534 15.08833012203538
STARLINK-4128           
1 53249U 22086H   26083.41588570  .00002428  00000+0  17061-3 0  9991
2 53249  53.2169 128.0225 0001410  90.2240 269.8913 15.08833010203309
STARLINK-4059           
1 53250U 22086J   26083.48485280 -.00001062  00000+0 -48648-4 0  9995
2 53250  53.2168 127.7037 0001378  89.5715 270.5435 15.08827490203301
STARLINK-4129           
1 53251U 22086K   26083.54004575  .00001385  00000+0  10510-3 0  9999
2 53251  53.2163 127.4554 0001208  83.7668 276.3462 15.08833984203302
STARLINK-4132           
1 53252U 22086L   26083.41123986  .00002168  00000+0  15431-3 0  9991
2 53252  53.2167 127.9855 0001337  92.8560 267.2586 15.08834001203308
STARLINK-4133           
1 53253U 22086M   26083.53636740  .00000154  00000+0  27782-4 0  9998
2 53253  53.2157 127.4733 0001306  83.9152 276.1989 15.08833022203300
STARLINK-4134           
1 53254U 22086N   26083.41220869  .00001673  00000+0  12324-3 0  9999
2 53254  53.2170 128.0401 0001292  86.0088 274.1052 15.08827084203301
