[{"OBJECT_NAME":"STARLINK-4364","OBJECT_ID":"2022-084AT","EPOCH":"2026-03-24T10:03:26.228448","MEAN_MOTION":15.05647531,"ECCENTRICITY":7.83e-5,"INCLINATION":97.6025,"RA_OF_ASC_NODE":145.7709,"ARG_OF_PERICENTER":114.3361,"MEAN_ANOMALY":245.7947,"EPHEMERIS_TYPE":0,"CLASSIFICATION_TYPE":"U","NORAD_CAT_ID":53230,"ELEMENT_SET_NO":999,"REV_AT_EPOCH":20160,"BSTAR":0.00012004,"MEAN_MOTION_DOT":1.672e-5,"MEAN_MOTION_DDOT":0},{"OBJECT_NAME":"STARLINK-4370","OBJECT_ID":"2022-084AU","EPOCH":"2026-03-24T10:19:23.564640","MEAN_MOTION":15.05638734,"ECCENTRICITY":0.0001252,"INCLINATION":97.6025,"RA_OF_ASC_NODE":145.7436,"ARG_OF_PERICENTER":118.6645,"MEAN_ANOMALY":241.4708,"EPHEMERIS_TYPE":0,"CLASSIFICATION_TYPE":"U","NORAD_CAT_ID":53231,"ELEMENT_SET_NO":999,"REV_AT_EPOCH":20160,"BSTAR":3.6283e-5,"MEAN_MOTION_DOT":4.63e-6,"MEAN_MOTION_DDOT":0},{"OBJECT_NAME":"STARLINK-4371","OBJECT_ID":"2022-084AV","EPOCH":"2026-03-24T10:48:11.597472","MEAN_MOTION":15.01260941,"ECCENTRICITY":0.0001705,"INCLINATION":97.6054,"RA_OF_ASC_NODE":144.6643,"ARG_OF_PERICENTER":108.394,"MEAN_ANOMALY":251.747,"EPHEMERIS_TYPE":0,"CLASSIFICATION_TYPE":"U","NORAD_CAT_ID":53232,"ELEMENT_SET_NO":999,"REV_AT_EPOCH":20153,"BSTAR":0.00011302,"MEAN_MOTION_DOT":1.394e-5,"MEAN_MOTION_DDOT":0},{"OBJECT_NAME":"STARLINK-4372","OBJECT_ID":"2022-084AW","EPOCH":"2026-03-24T10:40:32.899872","MEAN_MOTION":15.01263585,"ECCENTRICITY":0.0001962,"INCLINATION":97.6047,"RA_OF_ASC_NODE":144.6655,"ARG_OF_PERICENTER":78.415,"MEAN_ANOMALY":281.7294,"EPHEMERIS_TYPE":0,"CLASSIFICATION_TYPE":"U","NORAD_CAT_ID":53233,"ELEMENT_SET_NO":999,"REV_AT_EPOCH":20153,"BSTAR":5.9088e-6,"MEAN_MOTION_DOT":1.8e-7,"MEAN_MOTION_DDOT":0},{"OBJECT_NAME":"STARLINK-4368","OBJECT_ID":"2022-084AX","EPOCH":"2026-03-24T10:42:51.836256","MEAN_MOTION":15.01248038,"ECCENTRICITY":0.0001399,"INCLINATION":97.6059,"RA_OF_ASC_NODE":144.6599,"ARG_OF_PERICENTER":99.4008,"MEAN_ANOMALY":260.7374,"EPHEMERIS_TYPE":0,"CLASSIFICATION_TYPE":"U","NORAD_CAT_ID":53234,"ELEMENT_SET_NO":999,"REV_AT_EPOCH":20254,"BSTAR":5.7186e-5,"MEAN_MOTION_DOT":6.76e-6,"MEAN_MOTION_DDOT":0},{"OBJECT_NAME":"STARLINK-4056","OBJECT_ID":"2022-086A","EPOCH":"2026-03-24T12:59:39.137280","MEAN_MOTION":15.08833272,"ECCENTRICITY":0.0001303,"INCLINATION":53.2159,"RA_OF_ASC_NODE":132.4386,"ARG_OF_PERICENTER":81.8877,"MEAN_ANOMALY":278.2263,"EPHEMERIS_TYPE":0,"CLASSIFICATION_TYPE":"U","NORAD_CAT_ID":53242,"ELEMENT_SET_NO":999,"REV_AT_EPOCH":20355,"BSTAR":3.2129e-5,"MEAN_MOTION_DOT":2.23e-6,"MEAN_MOTION_DDOT":0},{"OBJECT_NAME":"STARLINK-4047","OBJECT_ID":"2022-086B","EPOCH":"2026-03-24T12:19:12.410976","MEAN_MOTION":15.08830704,"ECCENTRICITY":0.0001496,"INCLINATION":53.2186,"RA_OF_ASC_NODE":137.2704,"ARG_OF_PERICENTER":96.5382,"MEAN_ANOMALY":263.578,"EPHEMERIS_TYPE":0,"CLASSIFICATION_TYPE":"U","NORAD_CAT_ID":53243,"ELEMENT_SET_NO":999,"REV_AT_EPOCH":20350,"BSTAR":-8.9546e-5,"MEAN_MOTION_DOT":-1.712e-5,"MEAN_MOTION_DDOT":0},{"OBJECT_NAME":"STARLINK-4125","OBJECT_ID":"2022-086C","EPOCH":"2026-03-24T12:56:21.737472","MEAN_MOTION":15.08835205,"ECCENTRICITY":0.0001359,"INCLINATION":53.2154,"RA_OF_ASC_NODE":137.5389,"ARG_OF_PERICENTER":81.4851,"MEAN_ANOMALY":278.6295,"EPHEMERIS_TYPE":0,"CLASSIFICATION_TYPE":"U","NORAD_CAT_ID":53244,"ELEMENT_SET_NO":999,"REV_AT_EPOCH":20348,"BSTAR":-7.7926e-5,"MEAN_MOTION_DOT":-1.528e-5,"MEAN_MOTION_DDOT":0},{"OBJECT_NAME":"STARLINK-4131","OBJECT_ID":"2022-086E","EPOCH":"2026-03-24T09:40:17.075424","MEAN_MOTION":15.08824101,"ECCENTRICITY":0.0001094,"INCLINATION":53.2175,"RA_OF_ASC_NODE":138.0724,"ARG_OF_PERICENTER":75.0784,"MEAN_ANOMALY":285.0329,"EPHEMERIS_TYPE":0,"CLASSIFICATION_TYPE":"U","NORAD_CAT_ID":53246,"ELEMENT_SET_NO":999,"REV_AT_EPOCH":20235,"BSTAR":4.7137e-5,"MEAN_MOTION_DOT":4.62e-6,"MEAN_MOTION_DDOT":0},{"OBJECT_NAME":"STARLINK-4061","OBJECT_ID":"2022-086F","EPOCH":"2026-03-24T10:10:07.048416","MEAN_MOTION":15.08830509,"ECCENTRICITY":0.0001099,"INCLINATION":53.217,"RA_OF_ASC_NODE":133.161,"ARG_OF_PERICENTER":85.0339,"MEAN_ANOMALY":275.0778,"EPHEMERIS_TYPE":0,"CLASSIFICATION_TYPE":"U","NORAD_CAT_ID":53247,"ELEMENT_SET_NO":999,"REV_AT_EPOCH":20353,"BSTAR":5.2547e-5,"MEAN_MOTION_DOT":5.48e-6,"MEAN_MOTION_DDOT":0},{"OBJECT_NAME":"STARLINK-4135","OBJECT_ID":"2022-086G","EPOCH":"2026-03-24T09:54:12.323232","MEAN_MOTION":15.08833012,"ECCENTRICITY":0.000132,"INCLINATION":53.217,"RA_OF_ASC_NODE":133.1333,"ARG_OF_PERICENTER":76.5605,"MEAN_ANOMALY":283.5534,"EPHEMERIS_TYPE":0,"CLASSIFICATION_TYPE":"U","NORAD_CAT_ID":53248,"ELEMENT_SET_NO":999,"REV_AT_EPOCH":20353,"BSTAR":3.2461e-5,"MEAN_MOTION_DOT":2.29e-6,"MEAN_MOTION_DDOT":0},{"OBJECT_NAME":"STARLINK-4128","OBJECT_ID":"2022-086H","EPOCH":"2026-03-24T09:58:52.524480","MEAN_MOTION":15.0883301,"ECCENTRICITY":0.000141,"INCLINATION":53.2169,"RA_OF_ASC_NODE":128.0225,"ARG_OF_PERICENTER":90.224,"MEAN_ANOMALY":269.8913,"EPHEMERIS_TYPE":0,"CLASSIFICATION_TYPE":"U","NORAD_CAT_ID":53249,"ELEMENT_SET_NO":999,"REV_AT_EPOCH":20330,"BSTAR":0.00017061,"MEAN_MOTION_DOT":2.428e-5,"MEAN_MOTION_DDOT":0},{"OBJECT_NAME":"STARLINK-4059","OBJECT_ID":"2022-086J","EPOCH":"2026-03-24T11:38:11.281920","MEAN_MOTION":15.0882749,"ECCENTRICITY":0.0001378,"INCLINATION":53.2168,"RA_OF_ASC_NODE":127.7037,"ARG_OF_PERICENTER":89.5715,"MEAN_ANOMALY":270.5435,"EPHEMERIS_TYPE":0,"CLASSIFICATION_TYPE":"U","NORAD_CAT_ID":53250,"ELEMENT_SET_NO":999,"REV_AT_EPOCH":20330,"BSTAR":-4.8648e-5,"MEAN_MOTION_DOT":-1.062e-5,"MEAN_MOTION_DDOT":0},{"OBJECT_NAME":"STARLINK-4129","OBJECT_ID":"2022-086K","EPOCH":"2026-03-24T12:57:39.952800","MEAN_MOTION":15.08833984,"ECCENTRICITY":0.0001208,"INCLINATION":53.2163,"RA_OF_ASC_NODE":127.4554,"ARG_OF_PERICENTER":83.7668,"MEAN_ANOMALY":276.3462,"EPHEMERIS_TYPE":0,"CLASSIFICATION_TYPE":"U","NORAD_CAT_ID":53251,"ELEMENT_SET_NO":999,"REV_AT_EPOCH":20330,"BSTAR":0.0001051,"MEAN_MOTION_DOT":1.385e-5,"MEAN_MOTION_DDOT":0},{"OBJECT_NAME":"STARLINK-4132","OBJECT_ID":"2022-086L","EPOCH":"2026-03-24T09:52:11.123904","MEAN_MOTION":15.08834001,"ECCENTRICITY":0.0001337,"INCLINATION":53.2167,"RA_OF_ASC_NODE":127.9855,"ARG_OF_PERICENTER":92.856,"MEAN_ANOMALY":267.2586,"EPHEMERIS_TYPE":0,"CLASSIFICATION_TYPE":"U","NORAD_CAT_ID":53252,"ELEMENT_SET_NO":999,"REV_AT_EPOCH":20330,"BSTAR":0.00015431,"MEAN_MOTION_DOT":2.168e-5,"MEAN_MOTION_DDOT":0},{"OBJECT_NAME":"STARLINK-4133","OBJECT_ID":"2022-086M","EPOCH":"2026-03-24T12:52:22.143360","MEAN_MOTION":15.08833022,"ECCENTRICITY":0.0001306,"INCLINATION":53.2157,"RA_OF_ASC_NODE":127.4733,"ARG_OF_PERICENTER":83.9152,"MEAN_ANOMALY":276.1989,"EPHEMERIS_TYPE":0,"CLASSIFICATION_TYPE":"U","NORAD_CAT_ID":53253,"ELEMENT_SET_NO":999,"REV_AT_EPOCH":20330,"BSTAR":2.7782e-5,"MEAN_MOTION_DOT":1.54e-6,"MEAN_MOTION_DDOT":0},{"OBJECT_NAME":"STARLINK-4134","OBJECT_ID":"2022-086N","EPOCH":"2026-03-24T09:53:34.830816","MEAN_MOTION":15.08827084,"ECCENTRICITY":0.0001292,"INCLINATION":53.217,"RA_OF_ASC_NODE":128.0401,"ARG_OF_PERICENTER":86.0088,"MEAN_ANOMALY":274.1052,"EPHEMERIS_TYPE":0,"CLASSIFICATION_TYPE":"U","NORAD_CAT_ID":53254,"ELEMENT_SET_NO":999,"REV_AT_EPOCH":20330,"BSTAR":0.00012324,"MEAN_MOTION_DOT":1.673e-5,"MEAN_MOTION_DDOT":0}]
